SL-14 R/B               
1 19574U 88093B   25024.63913597  .00001166  00000+0  13341-3 0  9998
2 19574  82.5290  65.8471 0019666 314.4292 166.3604 14.85067521940310
SL-16 R/B               
1 19650U 88102B   25024.14048716  .00000332  00000+0  19215-3 0  9992
2 19650  71.0001 293.1736 0016548 273.4574  86.4657 14.16066536868915
INTERCOSMOS 24          
1 20261U 89080A   25024.43646421  .00000746  00000+0  21418-3 0  9994
2 20261  82.6070  10.4796 1191999 161.8574 202.9171 12.58692507615294
SL-14 R/B               
1 20262U 89080C   25024.57858808  .00000613  00000+0  17768-3 0  9990
2 20262  82.5902  75.8770 1232377  39.7707 328.7445 12.50140045609024
DELTA 1 R/B             
1 20323U 89089B   25024.60179554  .00001390  00000+0  35608-3 0  9991
2 20323  97.1207 291.0900 0069073 335.4861  24.3057 14.50164369836438
ARIANE 40 R/B           
1 20443U 90005H   25024.59692478  .00000913  00000+0  30680-3 0  9992
2 20443  98.3667  91.1666 0010030   1.3567 358.7647 14.39447363833940
DELTA 2 R/B(1)          
1 20453U 90008B   25024.35929292  .00032894  00000+0  91724-3 0  9996
2 20453  35.6128 266.9410 0159525 161.1477 199.5242 15.23980284863105
COSMOS 2058             
1 20465U 90010A   25024.60300929  .00007270  00000+0  48128-3 0  9990
2 20465  82.4870  88.7970 0011588 265.2623  94.7282 15.07139403880535
SL-14 R/B               
1 20466U 90010B   25024.14956400  .00001111  00000+0  13340-3 0  9997
2 20466  82.5034 291.8576 0019101 205.6450 154.3819 14.83020836867775
SL-14 R/B               
1 20511U 90018B   25024.58572179  .00001035  00000+0  12858-3 0  9999
2 20511  82.5193 245.3309 0016572   3.0345 357.0966 14.81603134861991
HST                     
1 20580U 90037B   25024.12128850  .00012593  00000+0  51738-3 0  9990
2 20580  28.4688 299.6734 0002441 301.9421  58.0935 15.22619517710685
SL-16 R/B               
1 20625U 90046B   25024.59284471  .00000281  00000+0  16968-3 0  9990
2 20625  70.9993  77.0328 0015428 214.3526 145.6600 14.14932880790529
COSMOS 2084             
1 20663U 90055A   25024.43767256  .00006811  00000+0  49378-3 0  9998
2 20663  62.7916 287.9925 0083170 140.5245 220.1954 15.02068625874762
SL-6 R/B(2)             
1 20666U 90055D   25024.61782692  .00006476  00000+0  50874-3 0  9992
2 20666  62.7830 202.1988 0050572 167.5709 192.6650 15.00819343876736
SL-8 R/B                
1 20775U 90078B   25024.60184741  .00021464  00000+0  77225-3 0  9991
2 20775  82.9095 254.3678 0425775 293.4951  62.2057 14.71714132748769
SL-8 R/B                
1 21088U 91006B   25024.61037671  .00000132  00000+0  11687-3 0  9990
2 21088  82.9433 114.3764 0023884 100.9894  16.2511 13.77419373707759
OKEAN-3                 
1 21397U 91039A   25024.41524093  .00006865  00000+0  53093-3 0  9992
2 21397  82.5180  12.3500 0012777 285.1574  74.8237 15.01291205803553
COSMOS 2151             
1 21422U 91042A   25024.57855640  .00004613  00000+0  38907-3 0  9993
2 21422  82.4988 117.5956 0012510   7.5408 352.6001 14.97901488801905
SL-14 R/B               
1 21423U 91042B   25024.62324069  .00001004  00000+0  12537-3 0  9998
2 21423  82.4909 243.6481 0017935 141.2081 219.0424 14.81317948792507
ERS-1                   
1 21574U 91050A   25024.56828173  .00001093  00000+0  36714-3 0  9993
2 21574  98.7905  27.4845 0031813 337.4341  22.5445 14.39003629756883
ARIANE 40 R/B           
1 21610U 91050F   25024.61899074  .00001053  00000+0  33093-3 0  9991
2 21610  98.2615  85.9094 0002403 215.5466 144.5564 14.42422944760015
INTERCOSMOS 25          
1 21819U 91086A   25024.51628928  .00003233  00000+0  64637-3 0  9998
2 21819  82.6047 197.0850 1494272 277.9718  65.4951 12.10072353447155
SL-8 R/B                
1 21876U 92008B   25024.60693115  .00000109  00000+0  96423-4 0  9994
2 21876  82.9250 211.9719 0034392 195.4140 228.5788 13.75898116653167
SL-8 R/B                
1 21938U 92020B   25024.60668899  .00000101  00000+0  88919-4 0  9991
2 21938  82.9297  97.5961 0028946   2.5665 108.8595 13.75486709644899
USA 81                  
1 21949U 92023A   25024.47356641  .00000607  00000+0  21835-3 0  9994
2 21949  85.0084   7.4914 0001234  93.5648 266.5685 14.32146579 36214
COSMOS 2219             
1 22219U 92076A   25024.56966816 -.00000031  00000+0  81534-5 0  9990
2 22219  71.0611 153.2532 0015503 107.4320 252.8499 14.13986430660545
SL-16 R/B               
1 22220U 92076B   25024.36111813  .00000018  00000+0  33159-4 0  9992
2 22220  71.0017 330.5598 0013073 348.2429 145.5105 14.16763248664183
COSMOS 2221             
1 22236U 92080A   25024.18891963  .00005541  00000+0  51723-3 0  9997
2 22236  82.5068 310.5766 0016250 121.7743 238.5064 14.93929716719605
SL-16 R/B               
1 22285U 92093B   25024.61806320  .00000019  00000+0  33987-4 0  9994
2 22285  71.0227 142.9610 0005918 232.8052 127.2532 14.15359950655277
COSMOS 2228             
1 22286U 92094A   25024.57793546  .00004447  00000+0  40726-3 0  9993
2 22286  82.5179 268.2581 0017339 237.6431 122.3112 14.94624215714894
SL-16 R/B               
1 22566U 93016B   25024.33584559 -.00000070  00000+0 -11434-4 0  9990
2 22566  71.0090 354.8935 0012295 234.6442 125.3532 14.15223561644253
COSMOS 2242             
1 22626U 93024A   25024.20345121  .00004832  00000+0  44838-3 0  9993
2 22626  82.5210 297.6219 0015208 240.2659 119.7049 14.94155262719195
SL-16 R/B               
1 22803U 93059B   25024.58728265  .00000251  00000+0  14821-3 0  9993
2 22803  70.9908 153.7830 0015044 117.3401 242.9256 14.17135367621577
ARIANE 40 R/B           
1 22830U 93061H   25024.44651769  .00000706  00000+0  27648-3 0  9991
2 22830  98.5457  95.2235 0011569  58.5947 301.6367 14.32511264635505
COSMOS 2278             
1 23087U 94023A   25023.87702289  .00000098  00000+0  76105-4 0  9992
2 23087  71.0557 312.4210 0011427 289.4662  70.5225 14.14246057586860
SL-16 R/B               
1 23088U 94023B   25024.61090105  .00000377  00000+0  21968-3 0  9999
2 23088  70.9983 209.9378 0004571 225.3724 134.7026 14.14936828588223
SL-16 R/B               
1 23343U 94074B   25024.59238983  .00001377  00000+0  19420-3 0  9995
2 23343  97.7599  66.0015 0007990 108.9289   8.3724 14.78757972626772
SL-16 R/B               
1 23405U 94077B   25024.61057734  .00000393  00000+0  22542-3 0  9999
2 23405  70.9838 133.0634 0001024   7.2323 352.8815 14.15484359558346
ARIANE 40+ R/B          
1 23561U 95021B   25024.42359538  .00000953  00000+0  32090-3 0  9999
2 23561  98.5021  95.3228 0005776 289.9414  85.1831 14.39340144560364
SL-16 R/B               
1 23705U 95058B   25023.89062718 -.00000157  00000+0 -56112-4 0  9990
2 23705  71.0231 320.5743 0011797  13.0311 347.1114 14.15419846509863
SL-16 R/B               
1 24298U 96051B   25023.89745606 -.00000137  00000+0 -47301-4 0  9994
2 24298  70.7820 322.3397 0015683  10.5501 349.5945 14.12443004463785
ORBVIEW 2 (SEASTAR)     
1 24883U 97037A   25024.41943033  .00001105  00000+0  40372-3 0  9996
2 24883  98.8020 174.2052 0002341 162.9130 197.2134 14.35047693449766
SL-16 R/B               
1 25400U 98043G   25024.45029697  .00000274  00000+0  13384-3 0  9994
2 25400  98.7716 331.2790 0010773 118.7725 241.4537 14.25909358380660
SL-16 R/B               
1 25407U 98045B   25024.31367319 -.00000047  00000+0  50789-6 0  9996
2 25407  71.0126 322.4287 0009826 284.6142  75.3891 14.16101593369144
ISS (ZARYA)             
1 25544U 98067A   25024.67510457  .00025956  00000+0  45306-3 0  9995
2 25544  51.6377 297.8978 0002089 131.4270 306.8981 15.50509808492908
CZ-4B R/B               
1 25732U 99025C   25024.61898233  .00000273  00000+0  15283-3 0  9990
2 25732  98.7226  72.2817 0038172  80.8931  32.8223 14.18129045330182
OKEAN-O                 
1 25860U 99039A   25024.59319871  .00001949  00000+0  26835-3 0  9996
2 25860  98.0060  82.3498 0001013 113.3823 246.7495 14.79392882373885
SL-16 R/B               
1 25861U 99039B   25024.57179739  .00001726  00000+0  22972-3 0  9993
2 25861  98.0589  77.9260 0015824 139.6844 220.5544 14.80929713376292
DELTA 2 R/B             
1 25876U 99041E   25024.60068826  .00006124  00000+0  10326-2 0  9996
2 25876  51.7631 133.0492 0509927 222.5367 133.4987 14.09950964305273
HELIOS 1B               
1 25977U 99064A   25024.58150122  .00002959  00000+0  34721-3 0  9999
2 25977  98.2151 269.4285 0001106  30.3200 329.8078 14.85762073624473
TERRA                   
1 25994U 99068A   25024.58466635  .00001404  00000+0  29924-3 0  9994
2 25994  98.0201  87.3095 0003115  52.3494  57.3068 14.60419997335358
SL-16 R/B               
1 26070U 00006B   25024.57663553 -.00000097  00000+0 -25113-4 0  9997
2 26070  70.9999 238.0047 0014234  83.7832 276.4912 14.15735605290659
TITAN 4B R/B            
1 26474U 00047B   25024.56501012  .00007555  00000+0  52212-3 0  9993
2 26474  67.9917 107.5212 0041656 145.4851 214.9014 15.05520720331243
ENVISAT                 
1 27386U 02009A   25024.47272197  .00000480  00000+0  16982-3 0  9999
2 27386  98.3148 344.2656 0001196  90.9694  19.1829 14.38823830200322
IDEFIX & ARIANE 42P R/B 
1 27422U 02021B   25024.41032991  .00001002  00000+0  40039-3 0  9995
2 27422  98.5494 323.9562 0011193 317.4868  42.5447 14.30604530185499
AQUA                    
1 27424U 02022A   25024.59492708  .00002964  00000+0  61758-3 0  9992
2 27424  98.3595 341.3465 0002062 100.9608 314.1094 14.60734715208987
CZ-4B R/B               
1 27432U 02024C   25024.59387763  .00000180  00000+0  11567-3 0  9998
2 27432  98.9465  73.6595 0051179 103.6719  14.1493 14.14440086171403
MIDORI II (ADEOS-II)    
1 27597U 02056A   25024.42992975  .00001105  00000+0  45608-3 0  9995
2 27597  98.7208 336.5840 0002000  97.7987 262.3422 14.28838290151849
H-2A R/B                
1 27601U 02056E   25024.56829687  .00001136  00000+0  41616-3 0  9994
2 27601  98.2604 357.0674 0069688 301.8796 171.1266 14.33313436155499
